GPS BIIR-5  (PRN 22)    
1 26407U 00040A   26138.61694050  .00000033  00000+0  00000+0 0  9998
2 26407  54.8561 216.3369 0121384 302.3547 230.8014  2.00557379189355
GPS BIIR-8  (PRN 16)    
1 27663U 03005A   26138.20572177  .00000037  00000+0  00000+0 0  9991
2 27663  54.8871 216.1602 0147989  53.0160 318.8094  2.00562103170718
GPS BIIR-11 (PRN 19)    
1 28190U 04009A   26137.46271089 -.00000030  00000+0  00000+0 0  9991
2 28190  54.8563 276.9279 0114751 171.7221 177.4709  2.00555598162323
GPS BIIR-13 (PRN 02)    
1 28474U 04045A   26138.14252748 -.00000067  00000+0  00000+0 0  9993
2 28474  55.1538 326.1059 0169846 315.6173 229.4566  2.00554404157821
GPS BIIRM-1 (PRN 17)    
1 28874U 05038A   26138.44943185 -.00000027  00000+0  00000+0 0  9991
2 28874  54.9035 274.3770 0127706 295.9684  73.0787  2.00567620151246
GPS BIIRM-2 (PRN 31)    
1 29486U 06042A   26138.16996984  .00000071  00000+0  00000+0 0  9999
2 29486  54.7062 152.5305 0106173  53.7876  11.4626  2.00571487143798
GPS BIIRM-3 (PRN 12)    
1 29601U 06052A   26137.00699953  .00000046  00000+0  00000+0 0  9999
2 29601  54.9391 215.2422 0085868  90.5552 270.4999  2.00556386142787
GPS BIIRM-4 (PRN 15)    
1 32260U 07047A   26138.80755969 -.00000017  00000+0  00000+0 0  9997
2 32260  54.0746  81.2761 0165747  86.8297 275.0323  2.00556604136220
GPS BIIRM-5 (PRN 29)    
1 32384U 07062A   26138.87264733 -.00000027  00000+0  00000+0 0  9993
2 32384  55.0562 275.3305 0035161 163.7098  10.3137  2.00558174134926
GPS BIIRM-6 (PRN 07)    
1 32711U 08012A   26138.22284236  .00000070  00000+0  00000+0 0  9999
2 32711  54.4924 151.1217 0210514 247.4430 110.3493  2.00571567133156
GPS BIIRM-8 (PRN 05)    
1 35752U 09043A   26138.72008561 -.00000076  00000+0  00000+0 0  9999
2 35752  56.1924  28.6092 0053410  82.0347 288.9087  2.00555725122777
GPS BIIF-1  (PRN 25)    
1 36585U 10022A   26137.60907735  .00000049  00000+0  00000+0 0  9999
2 36585  54.2733 209.7940 0126408  66.1106 340.3358  2.00560837116987
GPS BIIF-3  (PRN 24)    
1 38833U 12053A   26137.40512145  .00000074  00000+0  00000+0 0  9996
2 38833  53.5797 144.8603 0178732  65.3642 296.5167  2.00566950 98829
GPS BIIF-4  (PRN 27)    
1 39166U 13023A   26135.27691818 -.00000031  00000+0  00000+0 0  9996
2 39166  54.5310 270.3138 0141799  50.8427 310.3815  2.00563577 95220
GPS BIIF-5  (PRN 30)    
1 39533U 14008A   26138.26963767  .00000067  00000+0  00000+0 0  9993
2 39533  53.6491 150.5399 0084114 230.7151 128.5689  2.00557820 89085
GPS BIIF-6  (PRN 06)    
1 39741U 14026A   26138.54510104 -.00000069  00000+0  00000+0 0  9991
2 39741  56.5121 332.6713 0038530 326.8805  32.8940  2.00563079 87948
GPS BIIF-7  (PRN 09)    
1 40105U 14045A   26138.13773009 -.00000002  00000+0  00000+0 0  9995
2 40105  55.3344  89.6616 0032232 118.6149 241.6724  2.00556317 85473
GPS BIIF-8  (PRN 03)    
1 40294U 14068A   26137.51152079 -.00000070  00000+0  00000+0 0  9993
2 40294  56.9673  32.1368 0066137  69.4915 291.2550  2.00574205 84592
GPS BIIF-9  (PRN 26)    
1 40534U 15013A   26138.14629166  .00000047  00000+0  00000+0 0  9990
2 40534  53.1706 205.4202 0109031  40.0320 320.8517  2.00553124 81229
GPS BIIF-10 (PRN 08)    
1 40730U 15033A   26138.80395372 -.00000023  00000+0  00000+0 0  9997
2 40730  54.0064 268.2976 0115012  30.0973 330.5439  2.00557665 79400
GPS BIIF-11 (PRN 10)    
1 41019U 15062A   26137.86400249 -.00000071  00000+0  00000+0 0  9998
2 41019  56.9399  31.9795 0111349 231.3501 127.6871  2.00566870 77220
GPS BIIF-12 (PRN 32)    
1 41328U 16007A   26137.95297603  .00000000  00000+0  00000+0 0  9990
2 41328  55.5063  90.6577 0096068 247.2795 111.6667  2.00553046 75233
GPS BIII-1  (PRN 04)    
1 43873U 18109A   26138.59808725  .00000005  00000+0  00000+0 0  9991
2 43873  55.6650  93.3534 0037952 198.6663 160.5432  2.00560069 54475
GPS BIII-2  (PRN 18)    
1 44506U 19056A   26135.98166581 -.00000060  00000+0  00000+0 0  9996
2 44506  55.6526 332.4228 0060472 197.4166 335.4017  2.00569160 49428
GPS BIII-3  (PRN 23)    
1 45854U 20041A   26136.13771204 -.00000070  00000+0  00000+0 0  9992
2 45854  56.6497  30.1875 0062715 204.8384  20.3506  2.00559115 43392
GPS BIII-4  (PRN 14)    
1 46826U 20078A   26138.59005086  .00000036  00000+0  00000+0 0  9993
2 46826  53.9836 211.9791 0072228 206.3339 324.9048  2.00564731 40911
GPS BIII-5  (PRN 11)    
1 48859U 21054A   26137.34480044 -.00000068  00000+0  00000+0 0  9995
2 48859  55.1876 333.6992 0024566 229.1390 308.8618  2.00570739 36132
GPS BIII-6  (PRN 28)    
1 55268U 23009A   26138.54209184  .00000067  00000+0  00000+0 0  9994
2 55268  55.1180 149.6840 0006011 315.2078  45.2270  2.00573426 24650
GPS BIII-7  (PRN 01)    
1 62339U 24242A   26138.67616023 -.00000075  00000+0  00000+0 0  9999
2 62339  54.8623 335.3773 0017223   3.5093 176.2743  2.00570743 10660
GPS BIII-8  (PRN 21)    
1 64202U 25116A   26138.42023513 -.00000074  00000+0  00000+0 0  9999
2 64202  55.2158  32.3285 0008480 335.9271 201.3041  2.00577680  7277
GPS BIII-9  (PRN 20)    
1 67588U 26017A   26138.28367071 -.00000002  00000+0  00000+0 0  9995
2 67588  55.0700  89.9549 0022850 255.9029 103.8064  2.00571668431012
